{"type":"FeatureCollection","features":[{"type":"Feature","geometry":{"type":"Polygon","coordinates":[[[-118.66816199987696,34.184140999860752],[-118.66815299965614,34.176750000206674],[-118.66741100021461,34.176746999972991],[-118.65858899974546,34.176748999881085],[-118.65859499959326,34.175671999793089],[-118.65861800005781,34.171419000074103],[-118.65862899992847,34.169439999730351],[-118.65426399972465,34.16942700031602],[-118.65428100034141,34.165722000171336],[-118.64553400021536,34.165696000195538],[-118.64555299958363,34.161984999791336],[-118.64197499992552,34.161974999987862],[-118.63973499956059,34.159090999965557],[-118.64126899957068,34.158325000056102],[-118.64126899957068,34.158136000358496],[-118.64127000029391,34.157924000257317],[-118.64127600014167,34.156633000059365],[-118.63916200017344,34.157337000215414],[-118.63848299958279,34.157597000081402],[-118.63210700024125,34.150558999717845],[-118.63125000027365,34.151087000074838],[-118.62993899984635,34.149864000153855],[-118.62899200036539,34.147273000368948],[-118.61497100018944,34.147277000094753],[-118.61497799986213,34.149267000024075],[-118.61224600030093,34.148229000070899],[-118.60964799973571,34.147239999650239],[-118.60581700035762,34.145785000024901],[-118.59030300017943,34.13988700005428],[-118.57761699982196,34.13506499965559],[-118.56531600032724,34.13038299990761],[-118.56475200026263,34.130167999650013],[-118.57249299955987,34.11762799990278],[-118.59804500019992,34.076214000254744],[-118.59918800039775,34.074362000037112],[-118.58798699964656,34.072394000066325],[-118.57039500038348,34.069345999983923],[-118.57016500022974,34.051728000170371],[-118.57010699960509,34.047117000283798],[-118.56718852865552,34.041644866425564],[-118.56604299970014,34.041619999937197],[-118.55589174234218,34.038111750391103],[-118.55574200037087,34.038060000235753],[-118.55042099956695,34.039545000303995],[-118.54384600003378,34.039031000262874],[-118.53586503826627,34.035611348587182],[-118.52435599981426,34.03068000015675],[-118.5196869989385,34.027685848768442],[-118.5166919304413,34.025765161268822],[-118.5152410003405,34.026939999929134],[-118.51232399993305,34.030194000354349],[-118.50934600032453,34.032794000238901],[-118.50867199975677,34.03297500028232],[-118.50871699996259,34.033033000198103],[-118.50768799956757,34.036268999905211],[-118.50753199993198,34.040075999742953],[-118.5039650001445,34.040723999803113],[-118.49447599967863,34.050432999854088],[-118.49386200028358,34.050044999642942],[-118.49182500030828,34.048302000120678],[-118.48888100013664,34.045781000029031],[-118.48376600009537,34.041430000252653],[-118.48001500018492,34.044456000273968],[-118.47964699993889,34.045107000059964],[-118.47946299981588,34.045075999722727],[-118.47937499995233,34.045147000214307],[-118.47843799961881,34.045628999883171],[-118.47786900042964,34.046379000044361],[-118.4772829997254,34.046698999672174],[-118.47446499995048,34.044279000294743],[-118.4737209999608,34.044035999872833],[-118.47096000008732,34.041276000360519],[-118.47088800011728,34.041333999811329],[-118.46929100035801,34.039969000203392],[-118.46772200018782,34.038629000090488],[-118.4645939998932,34.035956999932907],[-118.46145999975076,34.033280000037145],[-118.45917500007829,34.031327999781638],[-118.4577039998174,34.031638000037191],[-118.45707799982851,34.029712999905989],[-118.4529999996799,34.027961000016347],[-118.45267499998988,34.027569000306919],[-118.44886600035309,34.02297099989687],[-118.4435169999601,34.016576000212083],[-118.44702799967106,34.014710999990641],[-118.45599499990514,34.009989999634385],[-118.45875699960355,34.008556000297133],[-118.46408799955489,34.005772999768688],[-118.46890300002048,34.003174999775972],[-118.47019400035632,34.002487000295289],[-118.47358399969345,34.000681999707432],[-118.47662199957641,33.999092000219996],[-118.4776200000093,33.998571999737507],[-118.47846299973318,33.998080000314687],[-118.47991700027562,33.997352999672323],[-118.48223899975801,33.995611000064237],[-118.48067275651742,33.993754928240854],[-118.47581091250302,33.987993414761029],[-118.47229462979988,33.983826454334455],[-118.46778467295023,33.978481944144043],[-118.46766736195727,33.978342925246423],[-118.46544592617603,33.975710419193135],[-118.46321264251449,33.973063873811483],[-118.45482440436007,33.963123417938597],[-118.45143600043089,33.959108000362498],[-118.45043010829825,33.957269318145983],[-118.44786928001948,33.952588349455048],[-118.44732171642964,33.951587451694493],[-118.44116799981525,33.940339000003682],[-118.43592849058065,33.930272166825603],[-118.42866637417823,33.91631923546953],[-118.42222099974391,33.916328999634828],[-118.42222199956881,33.91995699990845],[-118.42439099978863,33.919958000286449],[-118.42439599981149,33.921770000274812],[-118.4265709998791,33.921768999918086],[-118.42657400025213,33.923583000076057],[-118.42765999965026,33.92358199974062],[-118.42766700022129,33.927202999939119],[-118.42875400034261,33.927201000098641],[-118.42876900041124,33.930891000104907],[-118.42584199995802,33.931254999999268],[-118.41596199967991,33.931292000124657],[-118.41136700022065,33.931296000358792],[-118.40396599978372,33.931299000347991],[-118.39761600038143,33.930889000351023],[-118.39610499993756,33.930900000114924],[-118.38028600016087,33.930922999887727],[-118.37886900032665,33.930922999887727],[-118.37872799986133,33.930895000357935],[-118.37842900011057,33.929007999705604],[-118.37438100009919,33.92901300031874],[-118.36837499975518,33.929021000255602],[-118.36838700034907,33.930945999654298],[-118.37003299961384,33.930928999892238],[-118.370030999964,33.93818800030823],[-118.37003500016198,33.943104000076524],[-118.37003699981177,33.945419999787553],[-118.37005000023056,33.950149000272127],[-118.37005699990327,33.952672000238266],[-118.37254099976735,33.9526620003004],[-118.37861499988342,33.952645999652241],[-118.37884300038736,33.952646999646262],[-118.37883400016655,33.95747999966607],[-118.37775899974078,33.959903999986778],[-118.3760780003159,33.961350000273974],[-118.37129499963736,33.963345000066703],[-118.37123899956086,33.963367000146427],[-118.37161600002773,33.966852000061124],[-118.37282299979965,33.967648000233467],[-118.37079699969499,33.967992000155114],[-118.37014800013986,33.967992999968772],[-118.37010700013198,33.972281999985853],[-118.37010899978181,33.972972999697291],[-118.37010100028419,33.975010000154114],[-118.37011800000265,33.977272000352315],[-118.37014700031496,33.978807999743871],[-118.37023099998055,33.979928999961196],[-118.37034099958539,33.981636000231568],[-118.36097800041451,33.98166099975262],[-118.35854399988085,33.981666999904739],[-118.35753799995035,33.981670000353049],[-118.35700400002298,33.981673999709237],[-118.35632699998045,33.981677000157283],[-118.34999199974847,33.981692000161523],[-118.34733399980712,33.981700000361343],[-118.34539999976394,33.981705000113394],[-118.341744000288,33.981720999764931],[-118.34068099955782,33.981726999912823],[-118.33855700044215,33.981739000207341],[-118.33518599957496,33.981758000297724],[-118.33519200032104,33.980582000147912],[-118.33519599962071,33.97810800029113],[-118.33520999986442,33.974498999673983],[-118.33521200041254,33.972690999753659],[-118.33302399992616,33.97269600003554],[-118.33304200036781,33.970870000012667],[-118.33302999977394,33.96724899976612],[-118.32648000035512,33.96726700029248],[-118.32647100013428,33.970909000356841],[-118.3242910000438,33.970913000219213],[-118.3223620000235,33.970916000302104],[-118.32188699964736,33.970795999883521],[-118.31774699957445,33.970923000246785],[-118.31775199959732,33.967278999647853],[-118.31775400014546,33.965486000325519],[-118.31775699962019,33.963647999851489],[-118.31776099981816,33.959971999714227],[-118.31772599965807,33.956345000012355],[-118.31772400000821,33.952716999944094],[-118.31771999981027,33.945463000190266],[-118.31337200022324,33.94545999995492],[-118.31337700024609,33.941838000106394],[-118.31338700029183,33.938214000094064],[-118.30902499956277,33.938210000184831],[-118.30901899971498,33.940019999897416],[-118.30901500041534,33.941833000246362],[-118.3051909998116,33.941845000208033],[-118.30518699961364,33.943199999779587],[-118.30517999994096,33.945466999758722],[-118.30463599996781,33.945468999915462],[-118.30245400022756,33.945474000307115],[-118.30245199967939,33.946790000032742],[-118.30245000002958,33.948660000131603],[-118.30244800037975,33.949993000208465],[-118.30026200044149,33.949999000359476],[-118.30025800024355,33.951922000147107],[-118.30025800024355,33.952138999676741],[-118.30025700041865,33.952733999826805],[-118.30025499987052,33.95430599963624],[-118.30025300022068,33.955926000321682],[-118.30026699956608,33.959481000286274],[-118.29762299986841,33.959500000134788],[-118.29587899979605,33.95950499970202],[-118.29159599960802,33.959494999822091],[-118.29160400000391,33.95579500009103],[-118.29160499982883,33.955056000324362],[-118.2916099998517,33.952791000153795],[-118.29161400004968,33.950976999950377],[-118.29161700042273,33.949750999725303],[-118.29161800024762,33.949131000194448],[-118.29161900007253,33.94870599976371],[-118.29162099972237,33.947001000362853],[-118.29162499992032,33.945491000146184],[-118.29163199959299,33.942317000090583],[-118.29163699961589,33.939881000114987],[-118.29164099981384,33.93820399994808],[-118.29161200039984,33.93644100012196],[-118.2916159996995,33.934574999989898],[-118.29152500036123,33.930961999909563],[-118.29153500040694,33.928895999758325],[-118.29153700005678,33.928489000207193],[-118.29154200007964,33.92732400026442],[-118.29150899956936,33.923684999940598],[-118.29159200030837,33.920053000362302],[-118.29160700037697,33.91642199993602],[-118.29163900016403,33.911271000263],[-118.29164599983673,33.909160999879226],[-118.2916669997531,33.90191199969221],[-118.29168000017189,33.897592000221174],[-118.2917710004085,33.894201999835659],[-118.29172600020266,33.892477999637499],[-118.29158200026262,33.888842999771967],[-118.29143199957649,33.885215999687546],[-118.29128299961356,33.881592000020206],[-118.29120800016881,33.879777999680762],[-118.29118200022954,33.879141999949674],[-118.29108400032023,33.876761000316492],[-118.29089400034944,33.872695999641998],[-118.29056499956316,33.867165999915443],[-118.2915400004298,33.865663999762866],[-118.29806800010734,33.865552999654525],[-118.29449899977173,33.866470000286625],[-118.29435700037986,33.870522000094461],[-118.29914299963481,33.870530999766224],[-118.29931900026021,33.865697999955351],[-118.29937000031383,33.865697999955351],[-118.30256100035767,33.86569600016378],[-118.30914799958641,33.865608000337744],[-118.30914900030965,33.861978000085792],[-118.30914900030965,33.859951999748745],[-118.30915000013457,33.858347999925485],[-118.30913699971575,33.84739300022764],[-118.30912300037038,33.842859999758069],[-118.30912199964715,33.838206999895895],[-118.30911999999732,33.838076999860093],[-118.30911800034751,33.837358999922671],[-118.30900899966925,33.830241999957252],[-118.30891499995792,33.827933999871021],[-118.30901899971498,33.825625000172934],[-118.30899100012587,33.823317000080216],[-118.3089839995549,33.822781000312638],[-118.30895299959273,33.820189000023511],[-118.30892400017873,33.817037999867736],[-118.30893599987431,33.813457000242138],[-118.30893800042244,33.812714999847138],[-118.30880399962983,33.811039000309734],[-118.30825399980893,33.809014000041756],[-118.30922799995234,33.808450000046562],[-118.308870999577,33.807212999998427],[-118.30879000028443,33.802217000089769],[-118.30878100006362,33.800958000071788],[-118.3087529995762,33.797834000346064],[-118.30873699968269,33.795780000203798],[-118.30870099969766,33.791489999877783],[-118.30869700039803,33.790986999688933],[-118.30869200037513,33.790486999992098],[-118.30868499980414,33.789471000142143],[-118.30869400002499,33.786859999835926],[-118.30869700039803,33.786050999723535],[-118.30869900004782,33.785184999859418],[-118.30870400007072,33.783665999922206],[-118.30894000007225,33.782216000041736],[-118.30992400026143,33.7819469997551],[-118.30976199987974,33.780829999654941],[-118.30948599969523,33.779053000348014],[-118.30782600018676,33.779328000227885],[-118.30642699989586,33.774958000342743],[-118.30892300035384,33.774964000112291],[-118.30883299994215,33.772616000194397],[-118.31065200035759,33.766230000187328],[-118.31160600040954,33.763050999868234],[-118.3090349996085,33.762677999746423],[-118.30903799998156,33.760514999742242],[-118.30187799956903,33.760510999719294],[-118.301112999663,33.758079999786588],[-118.30099999968508,33.757721000228528],[-118.30908700038535,33.757727999749576],[-118.30910099973075,33.754275999937676],[-118.30911800034751,33.752127000000797],[-118.3092020000131,33.750051999756245],[-118.30927099961005,33.749523000000266],[-118.30961399974173,33.746790999885974],[-118.31110300044429,33.747293999642878],[-118.31217600032191,33.746804999965171],[-118.31802199993406,33.746839999779652],[-118.31844899973132,33.74684200011005],[-118.31845600030235,33.745756999991308],[-118.31847499967058,33.742944000322723],[-118.31941799985189,33.74262599997143],[-118.31960699999777,33.742630000081817],[-118.31992800038815,33.742023000056513],[-118.32002899977215,33.741492000367479],[-118.31991499996936,33.741089999813525],[-118.31969499986134,33.740887999715902],[-118.31908200029123,33.74058100033934],[-118.31875099985511,33.738367000128839],[-118.31849999978496,33.737632999656597],[-118.32037299972875,33.735769999743376],[-118.31851200037883,33.734879000327794],[-118.31851200037883,33.73478199985216],[-118.3185309997471,33.731986999733302],[-118.32077100011202,33.731140999876921],[-118.3210099995883,33.729397000069156],[-118.32670100028805,33.72941600034671],[-118.32847200012461,33.729422000315495],[-118.32963500041393,33.727493000311171],[-118.33289357622499,33.722132155471975],[-118.32407541425709,33.718652500942483],[-118.32231455640009,33.717957664498023],[-118.32121556556635,33.717524001478893],[-118.32119844906691,33.717517247495991],[-118.32035900038336,33.717185999812791],[-118.3169819996684,33.71426899987037],[-118.3144209998114,33.714902000240563],[-118.31363922117247,33.714638248723105],[-118.31289653811301,33.714387687281551],[-118.31140202534786,33.713883478360742],[-118.29914421146212,33.70974801912849],[-118.29660021312023,33.708889741972904],[-118.29577400021407,33.708611000191326],[-118.2940739996243,33.705148999968152],[-118.29290710513824,33.70532383724133],[-118.28815400039232,33.7060359997974],[-118.28796137015438,33.706165576337341],[-118.28590935933065,33.707545904990148],[-118.28541122823422,33.707880983846167],[-118.28393499977838,33.708873999775989],[-118.28327368072746,33.708737522445176],[-118.27825547595474,33.707701910159685],[-118.27815899958814,33.707682000107312],[-118.2774360004132,33.707992000212393],[-118.27768499993522,33.708782999718153],[-118.28248600015709,33.711647000111299],[-118.28369200010412,33.715995000226613],[-118.27915500037119,33.718455999692353],[-118.27528399991181,33.714913000175081],[-118.27284500025358,33.715783000040616],[-118.27417000002627,33.719232000112726],[-118.26783899999226,33.722144999976194],[-118.26530700044761,33.722658999729319],[-118.26163199980678,33.722195999909012],[-118.25729599991531,33.716607000167187],[-118.24711500023659,33.715225999690439],[-118.24598499955925,33.716575999805031],[-118.25163900044906,33.722713999648562],[-118.25110499962338,33.72421299986663],[-118.23870200002141,33.727422999822629],[-118.23782599978726,33.728917999978975],[-118.24355599994675,33.742217000210459],[-118.2433495697894,33.742515876970906],[-118.2489660004391,33.755902000120813],[-118.24076699958584,33.758296000163028],[-118.24544999980695,33.763888999663493],[-118.22074900018501,33.782622999871208],[-118.22593700002118,33.788148000181735],[-118.22609000018207,33.788310000223845],[-118.22751200003917,33.790367999795357],[-118.22696600041621,33.790859999988861],[-118.2267970003618,33.792147999888904],[-118.22243600035598,33.804151999831028],[-118.22243600035598,33.804448000268636],[-118.22243899983071,33.808235999628643],[-118.22244200020374,33.811878999636207],[-118.22450400029345,33.821568000218882],[-118.22457600026345,33.824288000047225],[-118.22457600026345,33.82438099993427],[-118.22660700039103,33.829493000044572],[-118.22804099994367,33.825623000189424],[-118.22806600005805,33.824195000058992],[-118.2253870002003,33.811007999752078],[-118.22392799963494,33.807053000318291],[-118.22456799986753,33.80433600026381],[-118.22734200015987,33.799839000299009],[-118.23004000028419,33.792547000251986],[-118.23750799976995,33.800507999740518],[-118.25679700014801,33.79952599977679],[-118.25844499996091,33.799442000181152],[-118.25651199974267,33.804774000034861],[-118.26397199973086,33.804569000029154],[-118.26462500038224,33.804495999799272],[-118.26459199987195,33.800069999783432],[-118.26458500019923,33.799126999843509],[-118.27529499978246,33.79863500013203],[-118.28299699961997,33.798240999844111],[-118.28654599986407,33.797643000125319],[-118.28673699965979,33.797817999757626],[-118.28895000026054,33.797761000343257],[-118.2959180001541,33.797784999747705],[-118.29906499981699,33.79778299985982],[-118.29914600000787,33.797796000250109],[-118.29911400022081,33.803405000335125],[-118.2987960002035,33.806248000070518],[-118.29834000009392,33.813054999913639],[-118.29849400007969,33.813139000327794],[-118.29925800016085,33.813645999983194],[-118.29906499981699,33.818985000358893],[-118.29908300025868,33.819742000262366],[-118.29906999983986,33.820214999964435],[-118.29918399964268,33.82450599987996],[-118.29918500036592,33.825696000301683],[-118.29918899966557,33.828113000083412],[-118.2991920000386,33.831549000348645],[-118.29919600023655,33.835570999680009],[-118.29920299990926,33.841950999934767],[-118.29919700006147,33.84365400027302],[-118.29920700010722,33.846318999822401],[-118.2982840000174,33.846348999766917],[-118.28601699995956,33.846252999907335],[-118.28603600022615,33.852248000272873],[-118.28525399970333,33.854156999677556],[-118.2905179997075,33.854223000200378],[-118.29052299973037,33.858698999917479],[-118.28521100004563,33.860480999828589],[-118.28494099970888,33.861343999642749],[-118.28155499967137,33.862801999829458],[-118.2816269996414,33.870296999787982],[-118.28160800027314,33.872631000159394],[-118.28210700004044,33.872852999725708],[-118.28257900004353,33.881839999976613],[-118.28272899983135,33.885466000370343],[-118.28320099983446,33.896984999971025],[-118.28226799969892,33.897314999805239],[-118.28225400035353,33.901900000069283],[-118.28223300043713,33.909175999993884],[-118.28218400003334,33.916423000355522],[-118.28208600012404,33.923201000039136],[-118.28125400027082,33.923199000104638],[-118.27753400032248,33.922433000139542],[-118.27733199975781,33.923281000360383],[-118.27390100041276,33.923281999953936],[-118.2732279996699,33.923281999953936],[-118.26954399970657,33.923107000087441],[-118.26518600007378,33.923099999936177],[-118.2613869995844,33.923097999999385],[-118.25651199974267,33.923096000062543],[-118.25438400042907,33.923094999721329],[-118.25357900034004,33.923746999769307],[-118.25381199996853,33.927442999837602],[-118.25380600012075,33.927980999923292],[-118.25350300017203,33.928584999990868],[-118.25426800007811,33.929462000365902],[-118.24625700044412,33.929486000047824],[-118.23987199998344,33.929515000306608],[-118.23904599997798,33.929476000367529],[-118.23351599983505,33.929153999748493],[-118.23032399996629,33.929001000039321],[-118.23089899990157,33.931691000011817],[-118.23067299994577,33.932444999661598],[-118.23021199981331,33.93398700035214],[-118.2292129995555,33.937331000114895],[-118.22875300014628,33.938873999680474],[-118.22949700013596,33.943099999651849],[-118.22747600005417,33.943091000186087],[-118.22823699976225,33.946624999936432],[-118.22860199963525,33.948301000350426],[-118.23402600037127,33.948242999951027],[-118.23399500040914,33.953263999681894],[-118.2385470002107,33.95327000034743],[-118.24190200028606,33.953274000294172],[-118.24325499964786,33.953262999695127],[-118.24421000042304,33.95426999980053],[-118.24744999997236,33.954257000125217],[-118.24883900021749,33.953357999876751],[-118.24899800022612,33.949304000170478],[-118.24900700044699,33.94907499968749],[-118.24913799996824,33.943272999962595],[-118.25364000043939,33.943276999633952],[-118.25353300030928,33.951260000360911],[-118.25409999984861,33.951031999937939],[-118.25592900030979,33.953276000267444],[-118.25592400028695,33.954726999792207],[-118.25591400024119,33.956524999864726],[-118.25589900017258,33.960168999976496],[-118.25639299991698,33.960170999787714],[-118.25639299991698,33.962889999919113],[-118.25639299991698,33.963795999818792],[-118.25639399974187,33.964703000351541],[-118.25639399974187,33.967472999919138],[-118.25639399974187,33.968035000326886],[-118.25639499956679,33.970720999908352],[-118.25639499956679,33.971198000172329],[-118.25639600029004,33.974776999900591],[-118.25642200022932,33.979215000042757],[-118.25643599957468,33.98185900007956],[-118.25643899994775,33.983409000087093],[-118.25643599957468,33.989316999776364],[-118.25643599957468,33.989498000164481],[-118.25209399983544,33.989493000126011],[-118.24774799989819,33.989493000126011],[-118.24313900019523,33.989442999725199],[-118.2411590001213,33.989421999994946],[-118.23902099986364,33.989403000128171],[-118.23791799984876,33.989393000039755],[-118.23839599969965,33.994289999931816],[-118.23920499998665,34.003917999682223],[-118.2397079999519,34.014713000008037],[-118.22279700003098,34.014943000204525],[-118.21992599965429,34.014956000281238],[-118.21728199995665,34.015636000027307],[-118.21269800036804,34.01429499981684],[-118.20816599975964,34.015005999812942],[-118.20719900018723,34.013085000046189],[-118.20550199997054,34.012816000316619],[-118.20536200022845,34.012760000049845],[-118.2053389997639,34.012749999732364],[-118.20529199990825,34.01273199990257],[-118.20521400009044,34.012700999649006],[-118.20517300008257,34.012684999874011],[-118.20506000010464,34.014519000335525],[-118.2028220002879,34.013964999897304],[-118.20153799962472,34.013754999686824],[-118.19212500022513,34.012920999786552],[-118.19141600039553,34.012859000150698],[-118.19223099963202,34.016545999860021],[-118.19225200044676,34.018866999972396],[-118.1922640001423,34.020311000304893],[-118.19229599992933,34.023963999921691],[-118.19232500024168,34.02728299971065],[-118.19233100008947,34.027955000155984],[-118.19235899967855,34.031161000334457],[-118.19224099967775,34.033251999958885],[-118.1912859998009,34.033273999808443],[-118.19129099982376,34.034416999980053],[-118.19238399979292,34.034002000139139],[-118.19240100040966,34.035977000309089],[-118.19243700039466,34.038074999960386],[-118.19247900022745,34.040466000317217],[-118.19251199983943,34.042493000170815],[-118.19252600008312,34.043387000139028],[-118.19255600022035,34.044110000222098],[-118.19248900027321,34.046081000202875],[-118.19250699981656,34.048140999773992],[-118.19251500021245,34.049092999842863],[-118.19252799973293,34.050576999910348],[-118.19254199997664,34.052358000152076],[-118.19256899974083,34.055305999653129],[-118.19261099957362,34.060034000311049],[-118.19262499981731,34.061761999743219],[-118.18503000010996,34.061757000239695],[-118.18130199976569,34.062248999683817],[-118.17605299983012,34.062295999792852],[-118.17331799989587,34.061984999774566],[-118.16925900001384,34.062290000128748],[-118.16529300001818,34.062298000176902],[-118.16477800035739,34.06492299995508],[-118.16246699984734,34.069688000052892],[-118.1625189997259,34.069942000246336],[-118.16171700000992,34.071793000283876],[-118.1615620001992,34.072821000334528],[-118.16176100039084,34.074634999749918],[-118.1604929996212,34.075315000295191],[-118.1605200002837,34.078478000093789],[-118.16049599999425,34.081081999929623],[-118.16052399958333,34.086348000341168],[-118.16054399967483,34.088890000102083],[-118.160582000208,34.090337000269209],[-118.16066000002579,34.093440999872307],[-118.15952600004879,34.09427699988921],[-118.15906599974126,34.094589000189458],[-118.15588499974315,34.096823000236441],[-118.15529200026455,34.098575999828775],[-118.1552899997164,34.098672000145825],[-118.15677799969575,34.098669999876876],[-118.1602659998405,34.098669000114306],[-118.16218200034032,34.098669999876876],[-118.16841499956672,34.098662000288336],[-118.17799400044431,34.098594999799438],[-118.17799500026922,34.099725999921084],[-118.17799400044431,34.100361000254516],[-118.17799600009414,34.101921000105669],[-118.17799400044431,34.102958000018361],[-118.17778900040489,34.104009999823617],[-118.17813699966115,34.104068000224359],[-118.17799500026922,34.107080000349413],[-118.17799500026922,34.10769999974945],[-118.17799299972108,34.110323000286428],[-118.17741399958786,34.110827999742384],[-118.17699299963837,34.11219799982139],[-118.17618699972442,34.112451000079268],[-118.17546899967405,34.113117999701046],[-118.17248400039284,34.113801999632273],[-118.16886599965345,34.117843000071503],[-118.16888999994289,34.119924000231315],[-118.16747200028377,34.121105000227253],[-118.1676659995542,34.121796999895047],[-118.16805300006681,34.123922999863112],[-118.16826200030418,34.12430199967887],[-118.16628100040533,34.126174000342722],[-118.16722100021359,34.125885000294268],[-118.17053600010595,34.126902999866125],[-118.17280400006,34.124771000024353],[-118.17695500000356,34.123141000340816],[-118.17654099972677,34.126624000350397],[-118.17771700043488,34.126649000280608],[-118.18019299990303,34.126425000077241],[-118.18134000029883,34.129498000233809],[-118.18280099961569,34.129666000097927],[-118.18281700040751,34.13121099976523],[-118.18604000023841,34.13383299971315],[-118.18520599983705,34.136067999989905],[-118.18588700007753,34.136182999845794],[-118.1858850004277,34.137306000363949],[-118.18559099980151,34.138957999705312],[-118.18524799966984,34.139286999974075],[-118.18500900019355,34.139386000258504],[-118.18381300029228,34.139511000294213],[-118.18323599980886,34.139620999815818],[-118.18286099989012,34.139997999847488],[-118.18141700029173,34.140863000213173],[-118.18048800035416,34.140875000300362],[-118.18064599963957,34.141201999790077],[-118.18220200028928,34.143157000030996],[-118.18456099958159,34.145401000118184],[-118.18378700035301,34.149079999947404],[-118.19819500014324,34.149045000113709],[-118.19819099994527,34.151626000271669],[-118.20270099991404,34.150632999913228],[-118.20543199965034,34.147430999801529],[-118.20772300006888,34.147246999916426],[-118.20944000037706,34.146419000306381],[-118.21097199983903,34.146219999802767],[-118.21161399972145,34.147176000269788],[-118.2191790001899,34.147513999865012],[-118.22245499972422,34.149253999733958],[-118.22533899962137,34.149485999635218],[-118.22623099974908,34.149789000126461],[-118.22778800022368,34.147197000339013],[-118.2280839996014,34.146720999965851],[-118.22860199963525,34.146885999983454],[-118.22868299982609,34.146734999840149],[-118.22823699976225,34.146447000152818],[-118.22857700041919,34.145881000286423],[-118.22877400006269,34.146031999725814],[-118.22877599971252,34.142768000151243],[-118.22878699958315,34.140252000212172],[-118.22914899998142,34.138079000094223],[-118.22787699991214,34.138084000295493],[-118.2279160002702,34.135601000001543],[-118.22929000044671,34.135599999931898],[-118.23002199984251,34.135601000001543],[-118.2335979998508,34.135599999931898],[-118.23360500042179,34.134510000292977],[-118.23568699970468,34.134495999880102],[-118.23638700021171,34.13400199997259],[-118.23601899996571,34.128830000268231],[-118.23523800016609,34.126720000071778],[-118.23605699960052,34.126607000334154],[-118.23878499986206,34.126232999855517],[-118.25326499962236,34.124448999689704],[-118.25330599963023,34.124322000024179],[-118.25113300011078,34.120946999910927],[-118.25413500000872,34.118860000265613],[-118.25425800003235,34.118760999737631],[-118.25729400026549,34.121447000192745],[-118.25998900001677,34.124367999684971],[-118.26187299983123,34.126936999776156],[-118.26540100015893,34.133421000075678],[-118.26729099982117,34.137095000079597],[-118.26810500013104,34.138678999829587],[-118.26980800019554,34.14198800023518],[-118.27226500029543,34.146764000262841],[-118.27372999981024,34.149613000147632],[-118.27556199974615,34.153165999828282],[-118.27600699998507,34.153164999966528],[-118.27768300028538,34.153207000095499],[-118.27833699986337,34.153204999629615],[-118.27898299994376,34.15320299990708],[-118.28049600003745,34.156332999805954],[-118.28277700041025,34.156806000077758],[-118.28940299999705,34.155750999754019],[-118.2915400004298,34.155776999818926],[-118.2956019997866,34.158798000320104],[-118.29882999964036,34.157682999986697],[-118.30281999992545,34.158588999786808],[-118.30433499966895,34.158839999877593],[-118.30781199994304,34.161139999957527],[-118.30872800036016,34.161438999721952],[-118.31026999986786,34.160797000286017],[-118.3129060000679,34.153993000354752],[-118.31581799955416,34.154453000118934],[-118.31767700015259,34.156313000345882],[-118.31996199982501,34.156011000042987],[-118.32211000012843,34.155727000087261],[-118.32534100035525,34.153514000049668],[-118.33102799995869,34.148318000351971],[-118.33257100018962,34.147830999688225],[-118.33880400031435,34.145227999785504],[-118.34090099966583,34.145454999827201],[-118.34231300037551,34.144811000140294],[-118.34516600031051,34.142746999724508],[-118.34806699992612,34.14952299983932],[-118.3497399998534,34.153431999793412],[-118.35155400024595,34.157667999888545],[-118.35181199998881,34.158270999654661],[-118.35213800040205,34.159033000141839],[-118.35310300032467,34.161289000089305],[-118.35715100033606,34.161286999814877],[-118.35715800000875,34.164908000160878],[-118.35486099974243,34.165230999905418],[-118.35607500008538,34.168067999730013],[-118.35630799971388,34.168775000194429],[-118.3563570001177,34.168888999701281],[-118.35775800005837,34.172162000278128],[-118.35857800021601,34.177582999775538],[-118.35885600005038,34.179428999829817],[-118.35912700021203,34.181223999860713],[-118.35940400022147,34.183063000242697],[-118.3597439999801,34.184880000084142],[-118.36000300044617,34.186593000061265],[-118.36111599960846,34.194385000151392],[-118.37031299999632,34.196379000077982],[-118.3703120001714,34.201196999917158],[-118.36581200024838,34.201195999881463],[-118.36217099994275,34.201419000120147],[-118.36268599960357,34.20482600008846],[-118.36298699990245,34.206817999795263],[-118.35036900021534,34.206671999735001],[-118.34970999971615,34.206662000026917],[-118.34300700013645,34.206557000048839],[-118.34134699972968,34.206527000137221],[-118.33992999989547,34.206503000051661],[-118.33956699967229,34.211301000200521],[-118.33454600024068,34.215618000201559],[-118.33559900002682,34.217673999816704],[-118.3374619999249,34.221312000297296],[-118.32889899992188,34.221378000245537],[-118.29276100044545,34.221654000009124],[-118.26687099969662,34.22184600015099],[-118.26680700012251,34.230677000335596],[-118.26680299992455,34.231234999965892],[-118.26678399965797,34.233889000327331],[-118.26678100018324,34.234235999919051],[-118.26677500033546,34.234987999637795],[-118.26677299978732,34.235318999867062],[-118.26673299960434,34.240795999901152],[-118.26602399977479,34.240355999720343],[-118.26599899966043,34.243891999781539],[-118.2666720004033,34.250778999792878],[-118.26529499985374,34.250402000198235],[-118.2652639998916,34.252380000175087],[-118.2565000000471,34.252265999946516],[-118.25669000001793,34.267189999758841],[-118.23890299986286,34.267084000264525],[-118.23879699955765,34.280575000109998],[-118.23878900006004,34.281589000047042],[-118.27353700036471,34.281660999915594],[-118.2736799995815,34.278066999900695],[-118.28669400000209,34.27833700019675],[-118.28630700038779,34.29207500005527],[-118.28659600009279,34.292654000181869],[-118.29061999981474,34.292719000155927],[-118.29939500042819,34.293258999993981],[-118.29947800026889,34.286095999716125],[-118.32691399982507,34.286059999833682],[-118.32683099998438,34.282434999988773],[-118.35172900014814,34.2824749999331],[-118.35173400017101,34.279434999641715],[-118.35173499999591,34.278833000075338],[-118.35470799958155,34.278848000142744],[-118.36427900006319,34.280764999798308],[-118.36728099996115,34.28058900003137],[-118.36951499957996,34.283462000137568],[-118.37075400003727,34.282117000125119],[-118.37134999988895,34.282343000044563],[-118.37049499957116,34.283813000092003],[-118.36983799962017,34.286126999994231],[-118.37371599975225,34.285891999683528],[-118.37351800028384,34.284417999729619],[-118.37351900010876,34.283165999863449],[-118.37263700002683,34.282831999892174],[-118.37467499982705,34.282827000106955],[-118.37480100022377,34.283659999854336],[-118.37654699994596,34.283435000308756],[-118.37710299961465,34.283364000277622],[-118.38185899963071,34.283897000060342],[-118.38576199987715,34.284817000227207],[-118.3846189996793,34.289730999966714],[-118.38691599994563,34.289733999888313],[-118.38685900004424,34.291532000171578],[-118.38237199964169,34.291525999714523],[-118.38293800025444,34.29396499990424],[-118.38287799997997,34.296955999829436],[-118.3873789997279,34.296943000048969],[-118.38739600034467,34.298779999654087],[-118.39363500031718,34.298788000314659],[-118.39371099958684,34.296978999721411],[-118.39674299962201,34.296982999766549],[-118.39698399964644,34.293348000069805],[-118.39973100017457,34.293418000146616],[-118.40029400041426,34.292431000356899],[-118.40063099979984,34.291350999925264],[-118.40090600015947,34.290142999822663],[-118.40080700042525,34.288581999857406],[-118.40114299998594,34.288449999912217],[-118.4012400000703,34.287972000287532],[-118.40158800022486,34.286423000230599],[-118.40616799961548,34.285926999866199],[-118.40748999991348,34.287183999690555],[-118.40939999966719,34.289011999837655],[-118.410294000343,34.291070999801221],[-118.40896000034945,34.291807999952312],[-118.40907199960412,34.29365899975285],[-118.40350800002432,34.293513000369579],[-118.40346000034373,34.297105999947448],[-118.40120499991021,34.297064999907143],[-118.40105199974931,34.300670000041841],[-118.40560000025123,34.300725999679457],[-118.40546899983167,34.307911999805768],[-118.40375099969854,34.307917000324309],[-118.40388100029321,34.310049999669033],[-118.40301599992972,34.309389000089446],[-118.40090399961133,34.310026999646475],[-118.40078999980851,34.316324000169679],[-118.40078599961053,34.316436000045726],[-118.39971899958067,34.316461000097],[-118.39653000008499,34.317418999866085],[-118.39689099976005,34.319814000049249],[-118.4006629995869,34.319542000014629],[-118.40392099957788,34.321724999963514],[-118.40491200033807,34.322076999631342],[-118.40511300017951,34.327595000052263],[-118.40520199986797,34.329811000174509],[-118.41357900009815,34.329881000271207],[-118.41358499994594,34.327408000259553],[-118.41220699957145,34.325903999966087],[-118.41359099979371,34.324690000234085],[-118.41714000003783,34.324947999960131],[-118.42075100020622,34.325573000166173],[-118.42074100016049,34.32772299998355],[-118.4190099996086,34.329881000271207],[-118.41998299992713,34.329879000290433],[-118.43003599955931,34.329879000290433],[-118.44591200013569,34.329937999702771],[-118.45966399979986,34.330020000300735],[-118.46886299983753,34.330091000210892],[-118.48440299995495,34.33027899994417],[-118.49271800026088,34.330623000227874],[-118.50400699997731,34.337156999651917],[-118.50736399970246,34.33462499996066],[-118.50834100021896,34.333890000134147],[-118.52180900020097,34.323727000047576],[-118.52565100034803,34.320832000107252],[-118.53401099996147,34.31453100020579],[-118.54343900032799,34.316681000227348],[-118.54629599956267,34.317332000351641],[-118.54551099956512,34.315658000218619],[-118.54709499980392,34.313346000182285],[-118.54367199995652,34.305715000339518],[-118.54429600029556,34.303940000327685],[-118.54333499967261,34.30325800036433],[-118.54094299987004,34.298794000253046],[-118.54670099961862,34.297866999868177],[-118.55124599974748,34.296777999806878],[-118.55403400028351,34.296413999970667],[-118.55739100000866,34.299242999991201],[-118.55976699991771,34.299191999660799],[-118.56209599997112,34.29879000029419],[-118.56644500028138,34.295391999820467],[-118.56742000024971,34.294952999890306],[-118.57014599996315,34.29535499980841],[-118.57176199998898,34.29861900001913],[-118.58509100005382,34.303478000215605],[-118.58810100034768,34.302924999685409],[-118.59265300014924,34.287219999833702],[-118.59200100022106,34.282400999649973],[-118.59190900015957,34.280626999700168],[-118.59169900009728,34.280229999773447],[-118.59257199995839,34.278037000226632],[-118.59620800024113,34.274520999904297],[-118.60414500025526,34.277465000187014],[-118.60564699958,34.277755999667022],[-118.6073360002991,34.2777439997543],[-118.61670500021607,34.276459000052654],[-118.62257099991969,34.27564199999351],[-118.62584399997927,34.274810000117064],[-118.62956300010269,34.272693999995703],[-118.63346100032626,34.269522000114904],[-118.63328100040123,34.268322000131448],[-118.63254599973406,34.263350999687283],[-118.63260199981055,34.254930000246439],[-118.63253700041155,34.241947999688705],[-118.63249399985554,34.240391000291503],[-118.6324500003729,34.238782999723561],[-118.63244399962683,34.238571999901218],[-118.63046799975086,34.238579000016458],[-118.63066799976741,34.238139000130175],[-118.6307249996688,34.23777200008638],[-118.64698100018683,34.238082000044209],[-118.64775299976557,34.234982999978833],[-118.64869500012196,34.23120099972418],[-118.64971199992308,34.227114999696099],[-118.65404699998966,34.227108999841484],[-118.65405200001253,34.223494999853799],[-118.65838999955388,34.223494999853799],[-118.65839200010201,34.22226499979989],[-118.65839999959958,34.216415999800944],[-118.65237499988733,34.216419000109155],[-118.65324000025082,34.212946000199011],[-118.66274100041227,34.212898999859384],[-118.66276399997848,34.209342999633087],[-118.6677989996538,34.209328999742176],[-118.66780500039991,34.206769999783027],[-118.66780700004972,34.20579500002475],[-118.66796500023347,34.199628999943037],[-118.66797699992902,34.199158999860451],[-118.66808400005917,34.194972000362107],[-118.65847300029286,34.194962000009198],[-118.65847999996554,34.196761999846892],[-118.65660600019682,34.196757000148189],[-118.65663799998387,34.196489999908735],[-118.6570199995753,34.192001000055029],[-118.65619199992003,34.190358000316635],[-118.6574489999207,34.189817999801178],[-118.65951100001038,34.189274999755419],[-118.66814000013566,34.191330999966311],[-118.66816199987696,34.184140999860752]],[[-118.4682569999401,34.062513000259067],[-118.46889299997474,34.06587099997558],[-118.46673100032595,34.067708000096388],[-118.46372299968192,34.065536999869124],[-118.46319999962516,34.065065999794342],[-118.46109999990064,34.060045999958319],[-118.45878099989301,34.058072999658592],[-118.45545500012997,34.060065999862744],[-118.45516100040209,34.060242999629942],[-118.45962299979196,34.065444999809017],[-118.45468100000308,34.066799000009127],[-118.45439999979568,34.065597000145658],[-118.45312600007659,34.063997999984494],[-118.45204700035117,34.062834000197299],[-118.44771499975933,34.057721000113887],[-118.44628399968141,34.05606000012142],[-118.44562400025562,34.055295000353759],[-118.44908700028603,34.053351000063323],[-118.44909499978361,34.051995999789639],[-118.44835900018988,34.049367000183459],[-118.45098899964383,34.047796000234619],[-118.45194100004595,34.047227999727816],[-118.45222200025334,34.047059999949575],[-118.45407400028077,34.049212000216365],[-118.45657599968818,34.047716999793032],[-118.45708899969917,34.048311999970352],[-118.45922100010907,34.050784999890659],[-118.46073099982969,34.052513999885122],[-118.46180500043057,34.053744000006262],[-118.46459899991606,34.056973999831683],[-118.4655809995571,34.058159000323109],[-118.46795300016649,34.06090999986305],[-118.4682569999401,34.062513000259067]],[[-118.46197500030986,33.979366000265742],[-118.46348000000766,33.981048999889211],[-118.45862400043249,33.984140999721092],[-118.45634800008254,33.985590000129498],[-118.45505099989894,33.986415999760702],[-118.4462200001073,33.984260000304289],[-118.44160399983333,33.983380000314682],[-118.43922100025158,33.980760999699619],[-118.43280800020179,33.975760999793934],[-118.4322590002058,33.975016000030713],[-118.43356499971195,33.974273999663772],[-118.45130099981336,33.964231000200215],[-118.45160600031022,33.964685000027579],[-118.45225099966737,33.96564399997817],[-118.45319300002373,33.967044999991543],[-118.45453200004016,33.969839000244328],[-118.4574779998616,33.973786000085347],[-118.46180000040769,33.978274999800796],[-118.4618999999668,33.978906000250184],[-118.46197500030986,33.979366000265742]],[[-118.45600800032391,34.284903000244405],[-118.45252199982899,34.287494000170398],[-118.45135199986699,34.288325999932297],[-118.44944100028835,34.289698999806895],[-118.44881299975133,34.291462999713637],[-118.4471719996111,34.292896000184228],[-118.44702000017347,34.293053000165635],[-118.44550000040707,34.29440599988623],[-118.44478099963345,34.293803000268518],[-118.44254700001464,34.295922999703208],[-118.44178799995635,34.296466999796223],[-118.43882100021852,34.299112000084214],[-118.43286299955506,34.304425000203587],[-118.42924999973685,34.301769999974681],[-118.42635400014412,34.299040999941589],[-118.4234669998739,34.296321999746077],[-118.42140099958625,34.294374999693908],[-118.41856199989493,34.296451000258479],[-118.4157919998006,34.293840999899594],[-118.41863200021513,34.291763999703832],[-118.41744800000943,34.290118999821615],[-118.42072899956662,34.287727000211568],[-118.42401800041804,34.285327000337276],[-118.42729099957931,34.282939999930299],[-118.43056899966179,34.28054899993176],[-118.43270500026964,34.278497000237905],[-118.43361400011575,34.277815999947315],[-118.43399200040751,34.277870000237115],[-118.43569499957371,34.279294999885622],[-118.44202099958484,34.274573000270195],[-118.44373399969508,34.273310000117867],[-118.44704799976255,34.276441999789768],[-118.45112699973608,34.280296000289454],[-118.45234699992682,34.281454000034422],[-118.45600800032391,34.284903000244405]],[[-118.44717800035721,33.990759000024688],[-118.4484720001678,33.993358999683856],[-118.44505299962,33.994282000172362],[-118.44334999955554,33.99531700013214],[-118.44245699960292,33.993598999961286],[-118.43757500008851,33.996035999984038],[-118.4353070001345,33.996899000010337],[-118.43471999960533,33.997206000240979],[-118.43350000031292,33.997846999996455],[-118.43032699981245,33.999445999907522],[-118.43083599962547,34.000102000368294],[-118.42848900002875,34.001343999811901],[-118.42650999977973,33.998732000110429],[-118.42598000005032,33.998069999757995],[-118.42170000023532,33.998537000220843],[-118.42105400015494,33.998608000182791],[-118.42062399998461,33.998654999810299],[-118.42005200042242,33.998965000235529],[-118.41971099994055,33.999381000292189],[-118.41823899985475,34.000618999897767],[-118.42124900014861,34.004422000361835],[-118.42051799967942,34.00486199977464],[-118.41734400025236,34.006748999655528],[-118.41922999971662,34.009102999762128],[-118.42141099963202,34.010324000352426],[-118.41962800009989,34.011319000240512],[-118.41845599958972,34.011984000209779],[-118.41823499965679,34.012109000008778],[-118.4170940000071,34.012788000187818],[-118.41276200031356,34.015263000024113],[-118.41083499994309,34.016351999908665],[-118.40867800031714,34.017538999849791],[-118.40686399992458,34.018574000091085],[-118.40545999961083,34.016853999793305],[-118.40522199995947,34.01702599975328],[-118.40251399978938,34.018640999832925],[-118.40044199965396,34.019993000048395],[-118.40060800023363,34.021472000341667],[-118.39745499982463,34.021662000052793],[-118.39753500019056,34.021737999669199],[-118.39835000032537,34.022917000196742],[-118.3947059996467,34.025001999655572],[-118.39347899978324,34.025386000247664],[-118.39154399991519,34.02689300032209],[-118.38776000039275,34.029064000019012],[-118.38420600012574,34.030213999855789],[-118.38152200024511,34.030923000130748],[-118.37969299978394,34.03140699985584],[-118.37872000036371,34.031665000094677],[-118.37591900030725,34.032416999760052],[-118.36957700040257,34.03508000034963],[-118.37076699955774,34.032441999970032],[-118.37190100043307,34.029928999814693],[-118.37364299995733,34.030421000076963],[-118.37621999970783,34.028645999772785],[-118.37696399969748,34.026900000122652],[-118.37702899999481,34.026626000159474],[-118.37664300020543,34.026008000358409],[-118.3763689996707,34.02584899988409],[-118.37669699973378,34.02398799974474],[-118.37698100031422,34.023707999897624],[-118.37756899976995,34.022436000193728],[-118.3779520000846,34.021970000036717],[-118.37808000013115,34.021220999906674],[-118.37818899991107,34.019217000055164],[-118.37890299976353,34.019273999740534],[-118.37966600001977,34.019308999645929],[-118.37750699984568,34.0179890002427],[-118.37267499966164,34.018357000352957],[-118.37407899997541,34.014851000349637],[-118.37309300013639,34.011913000259845],[-118.37264899972239,34.015839000084931],[-118.36671900044466,34.015622000056801],[-118.36717300000612,34.007088000209876],[-118.36502700025082,34.005554999961483],[-118.36265600036465,34.006316000346864],[-118.36143600017392,34.008331999684465],[-118.35754299997322,34.00914499991304],[-118.3574579995844,34.007635000194966],[-118.35912499966386,34.001477000206044],[-118.35819099970342,33.999270000066382],[-118.35780499991404,33.997144999774029],[-118.35593600016819,34.000621000247087],[-118.3537679997733,34.00234799981228],[-118.3510489997326,34.00469300012761],[-118.34735999974637,34.004653999645768],[-118.34207200035107,34.004542000224653],[-118.34122500042925,34.004771999673977],[-118.34084399976443,34.004950000277312],[-118.33923299976145,34.005863999666182],[-118.33794800017169,34.006489000165189],[-118.33568799971529,34.00825800015005],[-118.33498399990859,34.006115000080861],[-118.33247300028034,34.003392999734686],[-118.33148499989319,34.001491999694288],[-118.33149099974098,34.000006000090529],[-118.33216500030875,33.996330999887476],[-118.33665400036109,33.996310999850699],[-118.33728199999986,33.996307999919239],[-118.33726899958107,33.993076000071461],[-118.33726500028141,33.988986000061239],[-118.337749999805,33.988487000256818],[-118.34247599968381,33.988470999644363],[-118.34392299965526,33.989403999690047],[-118.34485699961573,33.989396000215372],[-118.34611500033961,33.989386999688257],[-118.35268099965195,33.989335000099736],[-118.35268099965195,33.988877000286919],[-118.35268200037518,33.987061000323045],[-118.3526830002001,33.983058999912856],[-118.35532199987487,33.983054999876977],[-118.35846199986506,33.983042000131576],[-118.36126000044683,33.983034000058062],[-118.3704250001493,33.983005999794827],[-118.37180500017361,33.982058000338476],[-118.37180199980055,33.979846999893518],[-118.37180900037156,33.977318000158157],[-118.3771839998055,33.977019999938051],[-118.37819099956089,33.976812999890377],[-118.38051399976651,33.976358000281259],[-118.38541899974547,33.976658000010467],[-118.38640399975954,33.977090000293614],[-118.38660200012629,33.97669600022342],[-118.3866540000048,33.976907000136414],[-118.39091899975119,33.978942000088544],[-118.39262799966347,33.979743999859956],[-118.39309999966656,33.979933999817405],[-118.39465799996611,33.980666000325726],[-118.3976349997497,33.982092999939063],[-118.39836299984582,33.983205000347972],[-118.39603399979245,33.983637999765868],[-118.39508499976336,33.983817999958575],[-118.39489499979258,33.9838539999514],[-118.39526700023659,33.9842319997001],[-118.39585100039265,33.9849129999943],[-118.39866800034267,33.98801500029024],[-118.39918200017858,33.987678000245481],[-118.40123900024538,33.986385999927222],[-118.40297499992185,33.987440999875567],[-118.40620299977559,33.989403999690047],[-118.40514900016454,33.990500999845864],[-118.40770900019659,33.992030999847387],[-118.40785599961137,33.992116999686871],[-118.40588700030641,33.992981999831095],[-118.40503299981359,33.994595000161759],[-118.40481199988062,33.994714000257304],[-118.40455199958963,33.994855000311269],[-118.40281500008827,33.995833000250762],[-118.40241000003232,33.996562999672655],[-118.40044800040006,34.001436000151529],[-118.39981300019031,34.00162999992596],[-118.40017499969025,34.002040000133526],[-118.4027680002326,34.003465000247132],[-118.40588899995623,33.999236000283517],[-118.40930400030605,34.000918999636887],[-118.40951000017039,34.000655000220291],[-118.41197999979074,34.001989999669235],[-118.41423100002631,34.003433000192395],[-118.41719500028942,33.999759999674836],[-118.41740100015375,33.999626000129581],[-118.41901600035469,33.998036999699934],[-118.41938100022769,33.9977550002382],[-118.42004499985138,33.99749399981507],[-118.4237060002485,33.997071000174309],[-118.42803799994205,33.996599000224599],[-118.43004700032827,33.996428000073749],[-118.43110199976425,33.996380999958944],[-118.43078700011996,33.9942350003599],[-118.43047599977535,33.992124999650208],[-118.43018200004749,33.990125000272734],[-118.4297169997171,33.989755999664396],[-118.43087400015862,33.989191999949973],[-118.4324630004203,33.991453000105437],[-118.43717400023051,33.995276000083607],[-118.44040700010711,33.993656999970078],[-118.44212199986718,33.992964000280317],[-118.4470229996482,33.990518999918436],[-118.44717800035721,33.990759000024688]],[[-118.42703100018663,34.089684000001],[-118.42704100023238,34.09063099980397],[-118.42414499974134,34.090639000151498],[-118.42409799988569,34.090449000247766],[-118.42397900005997,34.090461999910218],[-118.42373800003558,34.090398999810674],[-118.42359200044569,34.090504999809532],[-118.42307500023676,34.090561999936504],[-118.4229720003046,34.090641999723687],[-118.42229400043713,34.094272999887451],[-118.42042599961792,34.094265999697903],[-118.41393399992539,34.094268000070933],[-118.41383099999325,34.094095999805454],[-118.41307699995782,34.093414999972488],[-118.41269500036641,34.093000000319556],[-118.41234800003677,34.092733999868173],[-118.41196899992009,34.092478999749815],[-118.41188299970638,34.092244000098319],[-118.40943999985016,34.09485899999315],[-118.40864099960892,34.0971469996773],[-118.40869400021069,34.101507999962479],[-118.40541000028043,34.10146100003999],[-118.40531999986877,34.09629999981231],[-118.40312200023494,34.094304000082261],[-118.40241900025313,34.093667000038067],[-118.40234499973496,34.093661000364023],[-118.40206400042592,34.093791000149153],[-118.40193499965615,34.093912999697174],[-118.40179099971611,34.094142000282652],[-118.40167699991331,34.094204999828271],[-118.40154800004186,34.094159999945042],[-118.4014440002848,34.093885000304283],[-118.40132200008605,34.093838999687421],[-118.40088799971778,34.093993999854895],[-118.40103800040394,34.108743999974486],[-118.3986719996423,34.108752000097439],[-118.39920300009494,34.111486999654737],[-118.39658399961334,34.112414000006453],[-118.39158300027323,34.112425999670037],[-118.39057399996969,34.109203000227915],[-118.39131499958631,34.107416999973935],[-118.39238099979127,34.106313000084143],[-118.39209999958388,34.106080000260597],[-118.39208399969033,34.099054000065067],[-118.39255700041667,34.098499000138943],[-118.39541200000151,34.096173000281347],[-118.39650599979556,34.096181999897063],[-118.39585300004246,34.094349999702487],[-118.39584399982165,34.091055000072835],[-118.38656100011839,34.091039000199473],[-118.38553000007356,34.09320299969054],[-118.38503799997896,34.093558000066317],[-118.38445999967064,34.093587000133972],[-118.38337000007458,34.093724000267649],[-118.3811830003114,34.093322999690784],[-118.38118099976326,34.092104000280777],[-118.3798810001049,34.092683000203536],[-118.37929699994881,34.092954999795751],[-118.37738499964694,34.094212000022857],[-118.37273599976102,34.095622999796454],[-118.36896099956111,34.097810000356532],[-118.36816800006595,34.097087000177474],[-118.36594600014269,34.097118999866431],[-118.36165200008399,34.097178000307231],[-118.36154099975592,34.094534999976581],[-118.36154199958081,34.094455000148926],[-118.35816599958906,34.094431000185899],[-118.35666400026435,34.094420000014608],[-118.35499800000977,34.094408999841889],[-118.3539080004137,34.094400999850606],[-118.35172800032322,34.09438499986576],[-118.34953700036212,34.094368000064563],[-118.34790600026763,34.094356000071564],[-118.34715800008003,34.094349999702487],[-118.34408599986187,34.094327000267427],[-118.3433820000552,34.094328000081305],[-118.34338000040535,34.090698999758473],[-118.34338799990296,34.088927999923968],[-118.34405900009772,34.088892999736231],[-118.34866299977779,34.088929999679166],[-118.35280200002578,34.088962000220043],[-118.35280000037596,34.087129000100582],[-118.35323300002099,34.087131999797137],[-118.35427300028667,34.087139999731399],[-118.35739499983522,34.087166000070503],[-118.36144299984662,34.087201000228212],[-118.36270099967219,34.087190999759493],[-118.36326899993477,34.088970999858482],[-118.36590299958665,34.088932000178346],[-118.36696100029401,34.087132999695982],[-118.36908799978271,34.087100999951751],[-118.37023299963036,34.087084000175743],[-118.37023000015566,34.0856090003102],[-118.37248499969084,34.0854380002258],[-118.37249399991168,34.088837999730835],[-118.37249800010963,34.090256000331834],[-118.37317400032724,34.090149000158036],[-118.37327200023653,34.090051999980957],[-118.37640899985371,34.088921999914099],[-118.37695100017699,34.088630000158254],[-118.37700600042859,34.084848999854209],[-118.37703300019275,34.083040000194586],[-118.37030200012566,34.083156999883137],[-118.37029399972974,34.080168999824537],[-118.37420899967174,34.080160999975696],[-118.37420199999904,34.082018999632467],[-118.37526400000601,34.080159000013388],[-118.3772480002779,34.080206999840264],[-118.37716700008706,34.076592000229674],[-118.37880200037949,34.076389999748258],[-118.37940099970588,34.076390999773956],[-118.38048299980437,34.076688000179125],[-118.38371999987895,34.076430000021816],[-118.38772400040774,34.076471000301183],[-118.38973299989566,34.076490000024705],[-118.39033999961799,34.076502000317824],[-118.39070899968891,34.073560000346376],[-118.39070399966604,34.072082999905192],[-118.3897010001086,34.072078000266551],[-118.38674400041651,34.072082999905192],[-118.38376400025987,34.072121999904262],[-118.38375500003903,34.069766000005792],[-118.38266899974261,34.069688000052892],[-118.37618200007296,34.069335999639151],[-118.37575500027572,34.070097000256816],[-118.37548099974101,34.069459999664261],[-118.37225799991015,34.064244999680774],[-118.37224399966642,34.062199999906603],[-118.3761639996313,34.059600000267906],[-118.3772680003694,34.059521999887323],[-118.3773300002937,34.062954000070626],[-118.38030000040457,34.062946000084395],[-118.38353400010612,34.06293699991285],[-118.38361500029697,34.0593659996551],[-118.38366600035057,34.057099000338539],[-118.38778299995896,34.05709099979957],[-118.38985300044456,34.057084999767],[-118.39179599981026,34.057087000274052],[-118.3938620000979,34.057089000036868],[-118.39667499984995,34.057092000053068],[-118.39908000007131,34.057034999726959],[-118.39908000007131,34.057096000322588],[-118.40227000029024,34.056885999685811],[-118.40246299973576,34.057099000338539],[-118.40345500032086,34.057022999653405],[-118.40399300044622,34.057101000101021],[-118.40565799997755,34.057104000116851],[-118.40592199956821,34.057104000116851],[-118.40592499994123,34.055668000022074],[-118.40590999987262,34.055624000026867],[-118.40528499970863,34.054401999695237],[-118.40572499992471,34.053294000198697],[-118.40610599969122,34.052780999692501],[-118.40632300032449,34.053080999660317],[-118.41069600002592,34.059176999776284],[-118.41155100034366,34.060425000098284],[-118.41220400009671,34.060101000056271],[-118.41366399958866,34.063399999970883],[-118.41434400000423,34.064324000347597],[-118.41631900005528,34.067078999742563],[-118.41639199985021,34.068865999960792],[-118.41846200033582,34.072360999888083],[-118.4196420003436,34.072651999867105],[-118.42092799975825,34.075428000091016],[-118.42183900015249,34.075092999671277],[-118.42254600033223,34.075273000161417],[-118.42328899959868,34.075688999681944],[-118.4228600001516,34.07689800010764],[-118.42304900029748,34.077242000226136],[-118.42360599979106,34.079251000333898],[-118.4228629996263,34.079933000245994],[-118.42277800013582,34.083093000353358],[-118.42435800017668,34.083109000240341],[-118.42696199969134,34.083043999983147],[-118.42696800043744,34.083613999909211],[-118.42703100018663,34.089684000001]],[[-118.41754199972074,34.107897000153997],[-118.41749700041323,34.111985000131689],[-118.41749099966712,34.1124970002477],[-118.41662799985177,34.112506000358536],[-118.41607399983289,34.112514000125707],[-118.41604100022094,34.11251200018399],[-118.41586899979347,34.11196400023799],[-118.4139690000855,34.110727000241141],[-118.41178899999503,34.110696999732724],[-118.41180900008652,34.108883000143962],[-118.40973500030127,34.108854000111371],[-118.4097510001948,34.105151999988145],[-118.41739000028309,34.105199000091964],[-118.41754199972074,34.107897000153997]],[[-118.41473200034174,33.984017000100401],[-118.4134190002646,33.984965999668013],[-118.40918200010731,33.981329000358897],[-118.40908599984785,33.981247000151924],[-118.40992799974681,33.980879999800543],[-118.40998700019634,33.980978000152916],[-118.41246100001467,33.980297000362739],[-118.41473200034174,33.984017000100401]],[[-118.36215099985127,34.139028000281058],[-118.36095800032302,34.141136000288341],[-118.36126700011953,34.142685999871581],[-118.3593859997798,34.142706000327919],[-118.35796700029576,34.143347999748272],[-118.35416000030877,34.143210999687319],[-118.346424999961,34.142207000129439],[-118.3456650000778,34.142367000093898],[-118.345038000264,34.142445999973887],[-118.34322999971924,34.138214000220238],[-118.34421300008349,34.136061000284577],[-118.34845299971551,34.132885000031898],[-118.34877499993077,34.131386000035839],[-118.35199799976166,34.134193000307825],[-118.35698899995434,34.135041000059971],[-118.35782800037859,34.137986000014187],[-118.35697700025879,34.139066999918164],[-118.35718999979581,34.139214000275871],[-118.36215099985127,34.139028000281058]],[[-118.35835200026023,34.075678000051788],[-118.35837200035171,34.076117999768123],[-118.35735200017753,34.076121999883547],[-118.35733399973584,34.075687999647968],[-118.35835200026023,34.075678000051788]],[[-118.30915000013457,33.737916000135748],[-118.3086820003294,33.741620999750175],[-118.30425699985116,33.741527000109151],[-118.30426400042215,33.739960999805525],[-118.30206300041529,33.739309999651255],[-118.30165499998628,33.741520000012557],[-118.30166699968186,33.743334000172837],[-118.29950800040611,33.743345000198417],[-118.29891199965611,33.744143999711355],[-118.29800500035815,33.743352000146082],[-118.29671400002232,33.743317999861411],[-118.29672999991584,33.739693000091307],[-118.29673900013667,33.737878000352723],[-118.29894699981622,33.73787899987542],[-118.30114299980022,33.737867999895855],[-118.30774300034606,33.737914999866497],[-118.30915000013457,33.737916000135748]],[[-118.29921700015298,33.854214999958849],[-118.29922200017585,33.858315000145303],[-118.29703299986453,33.858317000109743],[-118.29703500041268,33.847283999721149],[-118.29921499960481,33.847291999865732],[-118.29921700015298,33.854214999958849]]]},"properties":{"GEOID":"0644000","NAME":"Los Angeles city"}}]}