{"type":"FeatureCollection","features":[{"type":"Feature","geometry":{"type":"Polygon","coordinates":[[[-117.69572399976941,33.613389000055477],[-117.69284700044328,33.610879000132222],[-117.69450000027906,33.606985000066835],[-117.69466000011261,33.606812000141346],[-117.69041000043484,33.604389999899439],[-117.68819000016141,33.602970000356557],[-117.68551499960333,33.601722999883592],[-117.67738799961839,33.5984740003098],[-117.6764379997644,33.597920999694473],[-117.67469000039237,33.596457000154416],[-117.67336999974421,33.580240000006057],[-117.67322499997925,33.578032999842506],[-117.67639900030464,33.578025999903446],[-117.67638000003805,33.568625999784075],[-117.67401499999967,33.568544000294246],[-117.67257100040128,33.5684919998289],[-117.67253799989099,33.567153000077283],[-117.67391999956511,33.558883999776292],[-117.6732779996827,33.555050999785159],[-117.67319400001712,33.550404999848865],[-117.67359999989799,33.547269000032024],[-117.67378900004387,33.5446289998523],[-117.67413200017555,33.54313500036519],[-117.6735520002174,33.542593999854894],[-117.67295999966538,33.542390000140898],[-117.66397599971286,33.536896000123789],[-117.65899200009119,33.533833000290066],[-117.65901200018268,33.550967999982852],[-117.65901700020555,33.55604999987748],[-117.65494099970672,33.560695000053506],[-117.65448999962001,33.562857999950268],[-117.65398199963192,33.564854000287454],[-117.65119399999422,33.569466999786734],[-117.65049000018753,33.570605999748686],[-117.64307299985707,33.577175999661904],[-117.64275800021279,33.577461999633321],[-117.64066500016098,33.580460000087356],[-117.64006000008847,33.581326999798719],[-117.6419549997736,33.582974999978255],[-117.63943499992452,33.587097999765206],[-117.63844700043566,33.588912999934045],[-117.63913699999868,33.596238000128849],[-117.63715100007695,33.596667000363951],[-117.63745099965261,33.597453999946083],[-117.63409499975236,33.599720000245938],[-117.6302190001684,33.607471999666693],[-117.62775399967256,33.612404999775336],[-117.6261860002256,33.618996000058864],[-117.6269029995528,33.622244000359558],[-117.62655199992352,33.628524000018238],[-117.62656100014435,33.632080000222452],[-117.62657700003787,33.636805000049655],[-117.62818600039101,33.639966999726632],[-117.62492000000415,33.639604000217382],[-117.62492000000415,33.645155999822585],[-117.62492099982904,33.645401000315502],[-117.62492500002699,33.654732999942361],[-117.62492400020207,33.654996999636019],[-117.62493300042294,33.669842000193626],[-117.62137999998083,33.668878999775835],[-117.61961499999208,33.672797000136086],[-117.62420399960354,33.672755999847048],[-117.62525200026515,33.671471000228969],[-117.6265169997634,33.670271000301604],[-117.63490300021442,33.664826999842134],[-117.63714799970391,33.663038000277552],[-117.63883200040013,33.662686000002779],[-117.64203500013953,33.662216999773648],[-117.64210600028464,33.660789000351222],[-117.64410899992478,33.658564999891446],[-117.64739200003012,33.65876400014983],[-117.65122699960619,33.656985000286539],[-117.65318900013676,33.656355000143606],[-117.66048900029135,33.64447500017441],[-117.66064199955393,33.644035000040873],[-117.66186799959242,33.64257600016407],[-117.66354999974051,33.640759999776066],[-117.66469499958818,33.641066000052895],[-117.67210900044391,33.634495000343719],[-117.67511100034186,33.631835999980019],[-117.68117100021422,33.626569999729369],[-117.68112000016059,33.62646000022287],[-117.68652999975461,33.621840000347049],[-117.68743000027823,33.620720000154655],[-117.68852999992005,33.619540000286946],[-117.6927300002674,33.617259999996129],[-117.69572399976941,33.613389000055477]]]},"properties":{"GEOID":"0648256","NAME":"Mission Viejo city"}}]}